{
    "links": {
        "self": "http://www.neowsapp.com/rest/v1/neo/3755192?api_key=iIulBulltgU6a56xZRHN4H3l9WmuAYTsLGpBGhQ2"
    },
    "id": "3755192",
    "neo_reference_id": "3755192",
    "name": "(2016 NL22)",
    "designation": "2016 NL22",
    "nasa_jpl_url": "http://ssd.jpl.nasa.gov/sbdb.cgi?sstr=3755192",
    "absolute_magnitude_h": 24.7,
    "estimated_diameter": {
        "kilometers": {
            "estimated_diameter_min": 0.0305179233,
            "estimated_diameter_max": 0.0682401509
        },
        "meters": {
            "estimated_diameter_min": 30.5179232594,
            "estimated_diameter_max": 68.2401509401
        },
        "miles": {
            "estimated_diameter_min": 0.0189629525,
            "estimated_diameter_max": 0.0424024508
        },
        "feet": {
            "estimated_diameter_min": 100.1244233463,
            "estimated_diameter_max": 223.8850168104
        }
    },
    "is_potentially_hazardous_asteroid": false,
    "close_approach_data": [
        {
            "close_approach_date": "2016-07-07",
            "close_approach_date_full": "2016-Jul-07 00:14",
            "epoch_date_close_approach": 1467850440000,
            "relative_velocity": {
                "kilometers_per_second": "10.624046872",
                "kilometers_per_hour": "38246.5687391798",
                "miles_per_hour": "23764.9304479643"
            },
            "miss_distance": {
                "astronomical": "0.0217853379",
                "lunar": "8.4744964431",
                "kilometers": "3259040.147070273",
                "miles": "2025073.6434768474"
            },
            "orbiting_body": "Earth"
        }
    ],
    "orbital_data": {
        "orbit_id": "5",
        "orbit_determination_date": "2017-04-06 08:25:06",
        "first_observation_date": "2016-07-09",
        "last_observation_date": "2016-07-13",
        "data_arc_in_days": 4,
        "observations_used": 36,
        "orbit_uncertainty": "8",
        "minimum_orbit_intersection": ".0205422",
        "jupiter_tisserand_invariant": "4.413",
        "epoch_osculation": "2457579.5",
        "eccentricity": ".3332959223880085",
        "semi_major_axis": "1.512508323971986",
        "inclination": "16.82301699539954",
        "ascending_node_longitude": "283.0537278204255",
        "orbital_period": "679.4305756273683",
        "perihelion_distance": "1.008395467014202",
        "perihelion_argument": "28.08833508918809",
        "aphelion_distance": "2.01662118092977",
        "perihelion_time": "2457600.388043058366",
        "mean_anomaly": "348.9323563425619",
        "mean_motion": ".5298554597246165",
        "equinox": "J2000",
        "orbit_class": {
            "orbit_class_type": "APO",
            "orbit_class_description": "Near-Earth asteroid orbits which cross the Earth’s orbit similar to that of 1862 Apollo",
            "orbit_class_range": "a (semi-major axis) > 1.0 AU; q (perihelion) < 1.017 AU"
        }
    },
    "is_sentry_object": false
}